ONEWEB-0230             
1 48769U 21045C   26158.73363731  .00000225  00000+0  56329-3 0  9997
2 48769  87.8998 261.0872 0002023  96.2316 263.9044 13.15547689243427
ONEWEB-0237             
1 48770U 21045D   26158.72252802  .00000015  00000+0  70951-5 0  9990
2 48770  87.8998 261.0913 0001670  99.5668 260.5651 13.15550987243149
ONEWEB-0235             
1 48771U 21045E   26158.77325100 -.00000153  00000+0 -44172-3 0  9997
2 48771  87.9009 261.0660 0001528 103.0689 257.0612 13.15547912243141
ONEWEB-0242             
1 48772U 21045F   26158.99508704  .00000032  00000+0  51230-4 0  9993
2 48772  87.9013 261.0182 0001800  96.7462 263.3873 13.15549444243215
ONEWEB-0241             
1 48773U 21045G   26158.98241538  .00000028  00000+0  39579-4 0  9999
2 48773  87.8997 261.0400 0001661 110.8087 249.3221 13.15548157243126
ONEWEB-0243             
1 48774U 21045H   26158.78592573 -.00000032  00000+0 -11914-3 0  9995
2 48774  87.8999 261.0916 0001599  88.1437 271.9877 13.15548027243121
ONEWEB-0222             
1 48775U 21045J   26158.99745860 -.00000120  00000+0 -35258-3 0  9993
2 48775  87.9010 261.0162 0001738 104.4734 255.6589 13.15548500243199
ONEWEB-0244             
1 48776U 21045K   26158.71937650  .00000138  00000+0  33324-3 0  9993
2 48776  87.9014 261.0660 0001817 100.0749 260.0586 13.15547579243724
ONEWEB-0247             
1 48777U 21045L   26158.79225147  .00000009  00000+0 -10488-4 0  9998
2 48777  87.8997 261.0849 0001182  89.5225 270.6041 13.15546753243173
ONEWEB-0245             
1 48778U 21045M   26158.78750176 -.00000433  00000+0 -11836-2 0  9991
2 48778  87.9011 261.0643 0002004 107.8765 252.2584 13.15550101243148
ONEWEB-0229             
1 48779U 21045N   26158.78275508 -.00000099  00000+0 -29605-3 0  9995
2 48779  87.9007 261.0632 0001832  97.5198 262.6140 13.15548621243175
ONEWEB-0228             
1 48780U 21045P   26158.74009645  .00000143  00000+0  34696-3 0  9994
2 48780  87.9014 261.0635 0001830 101.5306 258.6029 13.15550478243087
ONEWEB-0232             
1 48781U 21045Q   26158.79067412  .00000031  00000+0  49184-4 0  9991
2 48781  87.9009 261.0549 0001925 103.5794 256.5550 13.15549984243417
ONEWEB-0231             
1 48782U 21045R   26158.99666213 -.00000093  00000+0 -28029-3 0  9992
2 48782  87.9006 261.0270 0001704 103.2921 256.8399 13.15548180243130
ONEWEB-0234             
1 48783U 21045S   26158.73033066  .00000168  00000+0  41336-3 0  9996
2 48783  87.9007 261.0619 0002460 117.1484 242.9897 13.15549293243233
ONEWEB-0238             
1 48784U 21045T   26158.73058669  .00001311  00000+0  34467-2 0  9990
2 48784  87.9013 261.0562 0002038 112.9077 247.2269 13.15558448243132
ONEWEB-0240             
1 48785U 21045U   26158.98001858  .00000048  00000+0  93188-4 0  9999
2 48785  87.9014 261.0162 0001733 109.1526 250.9792 13.15547419243192
ONEWEB-0246             
1 48786U 21045V   26158.74631758  .00000088  00000+0  19898-3 0  9991
2 48786  87.9014 261.0674 0001864  98.1555 261.9787 13.15548549243039
ONEWEB-0210             
1 48787U 21045W   26158.72095589  .00000009  00000+0 -98758-5 0  9994
2 48787  87.9010 261.0697 0001357  78.0365 282.0917 13.15550284243076
ONEWEB-0214             
1 48788U 21045X   26158.72967319  .00000203  00000+0  50536-3 0  9999
2 48788  87.9014 261.0647 0001910  89.6499 270.4850 13.15548817243040
ONEWEB-0221             
1 48789U 21045Y   26158.73680458  .00000170  00000+0  41834-3 0  9991
2 48789  87.9011 261.0720 0001728 102.0481 258.0843 13.15547845243132
ONEWEB-0213             
1 48790U 21045Z   26158.72569436  .00000027  00000+0  38015-4 0  9993
2 48790  87.9011 261.0777 0001654  99.6900 260.4417 13.15550144243197
ONEWEB-0212             
1 48791U 21045AA  26159.00697046 -.00000093  00000+0 -28002-3 0  9994
2 48791  87.9010 261.0161 0002027 102.2631 257.8726 13.15549144243226
ONEWEB-0227             
1 48792U 21045AB  26159.00617838 -.00000140  00000+0 -40472-3 0  9994
2 48792  87.9008 261.0171 0001911 102.3840 257.7504 13.15548106243173
ONEWEB-0226             
1 48793U 21045AC  26158.99983390 -.00000180  00000+0 -51114-3 0  9990
2 48793  87.9005 261.0231 0001732  96.2286 263.9042 13.15549473243145
ONEWEB-0224             
1 48794U 21045AD  26158.73520419  .00000207  00000+0  51484-3 0  9990
2 48794  87.8998 261.1102 0001995 127.4050 232.7262 13.15550278243032
ONEWEB-0233             
1 48795U 21045AE  26159.04406433  .00000138  00000+0  33119-3 0  9993
2 48795  87.9000 261.0562 0001667 105.3710 254.7605 13.15547824243095
ONEWEB-0190             
1 48796U 21045AF  26158.72727741  .00000092  00000+0  20964-3 0  9999
2 48796  87.9002 261.0812 0001220 100.0504 260.0764 13.15550514243124
ONEWEB-0236             
1 48797U 21045AG  26158.74472873  .00000146  00000+0  35329-3 0  9996
2 48797  87.9000 261.0877 0002029 103.2016 256.9341 13.15547911243015
ONEWEB-0248             
1 48798U 21045AH  26158.98556313 -.00000009  00000+0 -56775-4 0  9994
2 48798  87.9012 261.0222 0001564 111.1608 248.9689 13.15547209243208
