OBJECT_NAME,OBJECT_ID,EPOCH,MEAN_MOTION,ECCENTRICITY,INCLINATION,RA_OF_ASC_NODE,ARG_OF_PERICENTER,MEAN_ANOMALY,EPHEMERIS_TYPE,CLASSIFICATION_TYPE,NORAD_CAT_ID,ELEMENT_SET_NO,REV_AT_EPOCH,BSTAR,MEAN_MOTION_DOT,MEAN_MOTION_DDOT
ONEWEB-0230,2021-045C,2026-06-07T17:36:26.263584,13.15547689,.0002023,87.8998,261.0872,96.2316,263.9044,0,U,48769,999,24342,.56329E-3,.225E-5,0
ONEWEB-0237,2021-045D,2026-06-07T17:20:26.420928,13.15550987,.000167,87.8998,261.0913,99.5668,260.5651,0,U,48770,999,24314,.70951E-5,.15E-6,0
ONEWEB-0235,2021-045E,2026-06-07T18:33:28.886400,13.15547912,.0001528,87.9009,261.0660,103.0689,257.0612,0,U,48771,999,24314,-.44172E-3,-.153E-5,0
ONEWEB-0242,2021-045F,2026-06-07T23:52:55.520256,13.15549444,.00018,87.9013,261.0182,96.7462,263.3873,0,U,48772,999,24321,.5123E-4,.32E-6,0
ONEWEB-0241,2021-045G,2026-06-07T23:34:40.688832,13.15548157,.0001661,87.8997,261.0400,110.8087,249.3221,0,U,48773,999,24312,.39579E-4,.28E-6,0
ONEWEB-0243,2021-045H,2026-06-07T18:51:43.983072,13.15548027,.0001599,87.8999,261.0916,88.1437,271.9877,0,U,48774,999,24312,-.11914E-3,-.32E-6,0
ONEWEB-0222,2021-045J,2026-06-07T23:56:20.423040,13.15548500,.0001738,87.9010,261.0162,104.4734,255.6589,0,U,48775,999,24319,-.35258E-3,-.12E-5,0
ONEWEB-0244,2021-045K,2026-06-07T17:15:54.129600,13.15547579,.0001817,87.9014,261.0660,100.0749,260.0586,0,U,48776,999,24372,.33324E-3,.138E-5,0
ONEWEB-0247,2021-045L,2026-06-07T19:00:50.527008,13.15546753,.0001182,87.8997,261.0849,89.5225,270.6041,0,U,48777,999,24317,-.10488E-4,.9E-7,0
ONEWEB-0245,2021-045M,2026-06-07T18:54:00.152064,13.15550101,.0002004,87.9011,261.0643,107.8765,252.2584,0,U,48778,999,24314,-.11836E-2,-.433E-5,0
ONEWEB-0229,2021-045N,2026-06-07T18:47:10.038912,13.15548621,.0001832,87.9007,261.0632,97.5198,262.6140,0,U,48779,999,24317,-.29605E-3,-.99E-6,0
ONEWEB-0228,2021-045P,2026-06-07T17:45:44.333280,13.15550478,.000183,87.9014,261.0635,101.5306,258.6029,0,U,48780,999,24308,.34696E-3,.143E-5,0
ONEWEB-0232,2021-045Q,2026-06-07T18:58:34.243968,13.15549984,.0001925,87.9009,261.0549,103.5794,256.5550,0,U,48781,999,24341,.49184E-4,.31E-6,0
ONEWEB-0231,2021-045R,2026-06-07T23:55:11.608032,13.15548180,.0001704,87.9006,261.0270,103.2921,256.8399,0,U,48782,999,24313,-.28029E-3,-.93E-6,0
ONEWEB-0234,2021-045S,2026-06-07T17:31:40.569024,13.15549293,.000246,87.9007,261.0619,117.1484,242.9897,0,U,48783,999,24323,.41336E-3,.168E-5,0
ONEWEB-0238,2021-045T,2026-06-07T17:32:02.690016,13.15558448,.0002038,87.9013,261.0562,112.9077,247.2269,0,U,48784,999,24313,.34467E-2,.1311E-4,0
ONEWEB-0240,2021-045U,2026-06-07T23:31:13.605312,13.15547419,.0001733,87.9014,261.0162,109.1526,250.9792,0,U,48785,999,24319,.93188E-4,.48E-6,0
ONEWEB-0246,2021-045V,2026-06-07T17:54:41.838912,13.15548549,.0001864,87.9014,261.0674,98.1555,261.9787,0,U,48786,999,24303,.19898E-3,.88E-6,0
ONEWEB-0210,2021-045W,2026-06-07T17:18:10.588896,13.15550284,.0001357,87.9010,261.0697,78.0365,282.0917,0,U,48787,999,24307,-.98758E-5,.9E-7,0
ONEWEB-0214,2021-045X,2026-06-07T17:30:43.763616,13.15548817,.000191,87.9014,261.0647,89.6499,270.4850,0,U,48788,999,24304,.50536E-3,.203E-5,0
ONEWEB-0221,2021-045Y,2026-06-07T17:40:59.915712,13.15547845,.0001728,87.9011,261.0720,102.0481,258.0843,0,U,48789,999,24313,.41834E-3,.17E-5,0
ONEWEB-0213,2021-045Z,2026-06-07T17:24:59.992704,13.15550144,.0001654,87.9011,261.0777,99.6900,260.4417,0,U,48790,999,24319,.38015E-4,.27E-6,0
ONEWEB-0212,2021-045AA,2026-06-08T00:10:02.247744,13.15549144,.0002027,87.9010,261.0161,102.2631,257.8726,0,U,48791,999,24322,-.28002E-3,-.93E-6,0
ONEWEB-0227,2021-045AB,2026-06-08T00:08:53.812032,13.15548106,.0001911,87.9008,261.0171,102.3840,257.7504,0,U,48792,999,24317,-.40472E-3,-.14E-5,0
ONEWEB-0226,2021-045AC,2026-06-07T23:59:45.648960,13.15549473,.0001732,87.9005,261.0231,96.2286,263.9042,0,U,48793,999,24314,-.51114E-3,-.18E-5,0
ONEWEB-0224,2021-045AD,2026-06-07T17:38:41.642016,13.15550278,.0001995,87.8998,261.1102,127.4050,232.7262,0,U,48794,999,24303,.51484E-3,.207E-5,0
ONEWEB-0233,2021-045AE,2026-06-08T01:03:27.158112,13.15547824,.0001667,87.9000,261.0562,105.3710,254.7605,0,U,48795,999,24309,.33119E-3,.138E-5,0
ONEWEB-0190,2021-045AF,2026-06-07T17:27:16.768224,13.15550514,.000122,87.9002,261.0812,100.0504,260.0764,0,U,48796,999,24312,.20964E-3,.92E-6,0
ONEWEB-0236,2021-045AG,2026-06-07T17:52:24.562272,13.15547911,.0002029,87.9000,261.0877,103.2016,256.9341,0,U,48797,999,24301,.35329E-3,.146E-5,0
ONEWEB-0248,2021-045AH,2026-06-07T23:39:12.654432,13.15547209,.0001564,87.9012,261.0222,111.1608,248.9689,0,U,48798,999,24320,-.56775E-4,-.9E-7,0
